{"type": "FeatureCollection", "features": [{"type": "Feature", "properties": {"norad_id": 28054, "name": "DMSP 5D-3 F16 (USA 172)", "group": "weather", "lat": 70.18135288163428, "lon": -10.391980025493474, "alt_km": 841.248866471672, "timestamp": "2025-12-24T03:53:29.284823+00:00", "meta": {"OBJECT_NAME": "DMSP 5D-3 F16 (USA 172)", "OBJECT_ID": "2003-048A", "EPOCH": "2025-12-23T19:36:13.056192", "MEAN_MOTION": 14.14427991, "ECCENTRICITY": 0.0006252, "INCLINATION": 99.0038, "RA_OF_ASC_NODE": 15.3606, "ARG_OF_PERICENTER": 285.3695, "MEAN_ANOMALY": 189.4921, "EPHEMERIS_TYPE": 0, "CLASSIFICATION_TYPE": "U", "NORAD_CAT_ID": 28054, "ELEMENT_SET_NO": 999, "REV_AT_EPOCH": 14469, "BSTAR": 7.7464e-05, "MEAN_MOTION_DOT": 1.03e-06, "MEAN_MOTION_DDOT": 0}, "tle": {"line1": "1 28054U 03048A   25357.81681778  .00000103  00000+0  77464-4 0  9997", "line2": "2 28054  99.0038  15.3606 0006252 285.3695 189.4921 14.14427991144694"}}, "geometry": {"type": "Point", "coordinates": [-10.391980025493474, 70.18135288163428]}}, {"type": "Feature", "properties": {"norad_id": 28912, "name": "METEOSAT-9 (MSG-2)", "group": "weather", "lat": 5.748433174358925, "lon": -163.79767885946956, "alt_km": 35982.2390944841, "timestamp": "2025-12-24T03:53:29.284873+00:00", "meta": {"OBJECT_NAME": "METEOSAT-9 (MSG-2)", "OBJECT_ID": "2005-049B", "EPOCH": "2025-12-23T18:29:06.029088", "MEAN_MOTION": 1.00268078, "ECCENTRICITY": 0.0059595, "INCLINATION": 8.9546, "RA_OF_ASC_NODE": 55.8584, "ARG_OF_PERICENTER": 281.8406, "MEAN_ANOMALY": 77.1031, "EPHEMERIS_TYPE": 0, "CLASSIFICATION_TYPE": "U", "NORAD_CAT_ID": 28912, "ELEMENT_SET_NO": 999, "REV_AT_EPOCH": 523, "BSTAR": 0, "MEAN_MOTION_DOT": 1.44e-06, "MEAN_MOTION_DDOT": 0}, "tle": {"line1": "1 28912U 05049B   25357.77020867  .00000144  00000+0  00000+0 0  9996", "line2": "2 28912   8.9546  55.8584 0059595 281.8406  77.1031  1.00268078  5234"}}, "geometry": {"type": "Point", "coordinates": [-163.79767885946956, 5.748433174358925]}}, {"type": "Feature", "properties": {"norad_id": 29522, "name": "DMSP 5D-3 F17 (USA 191)", "group": "weather", "lat": 32.18935935598008, "lon": -2.243005132447242, "alt_km": 847.2459612573793, "timestamp": "2025-12-24T03:53:29.284891+00:00", "meta": {"OBJECT_NAME": "DMSP 5D-3 F17 (USA 191)", "OBJECT_ID": "2006-050A", "EPOCH": "2025-12-23T19:15:06.276672", "MEAN_MOTION": 14.14924151, "ECCENTRICITY": 0.000988, "INCLINATION": 98.7392, "RA_OF_ASC_NODE": 2.9609, "ARG_OF_PERICENTER": 191.8187, "MEAN_ANOMALY": 168.2756, "EPHEMERIS_TYPE": 0, "CLASSIFICATION_TYPE": "U", "NORAD_CAT_ID": 29522, "ELEMENT_SET_NO": 999, "REV_AT_EPOCH": 98761, "BSTAR": 9.366e-05, "MEAN_MOTION_DOT": 1.38e-06, "MEAN_MOTION_DDOT": 0}, "tle": {"line1": "1 29522U 06050A   25357.80215598  .00000138  00000+0  93660-4 0  9990", "line2": "2 29522  98.7392   2.9609 0009880 191.8187 168.2756 14.14924151987614"}}, "geometry": {"type": "Point", "coordinates": [-2.243005132447242, 32.18935935598008]}}, {"type": "Feature", "properties": {"norad_id": 32958, "name": "FENGYUN 3A", "group": "weather", "lat": -63.299917862794764, "lon": -44.887384437248876, "alt_km": 829.0399330205664, "timestamp": "2025-12-24T03:53:29.284904+00:00", "meta": {"OBJECT_NAME": "FENGYUN 3A", "OBJECT_ID": "2008-026A", "EPOCH": "2025-12-23T12:58:13.024128", "MEAN_MOTION": 14.19517741, "ECCENTRICITY": 0.0007634, "INCLINATION": 98.6714, "RA_OF_ASC_NODE": 296.8405, "ARG_OF_PERICENTER": 275.4269, "MEAN_ANOMALY": 84.6036, "EPHEMERIS_TYPE": 0, "CLASSIFICATION_TYPE": "U", "NORAD_CAT_ID": 32958, "ELEMENT_SET_NO": 999, "REV_AT_EPOCH": 91048, "BSTAR": 6.5349e-05, "MEAN_MOTION_DOT": 9.4e-07, "MEAN_MOTION_DDOT": 0}, "tle": {"line1": "1 32958U 08026A   25357.54042852  .00000094  00000+0  65349-4 0  9998", "line2": "2 32958  98.6714 296.8405 0007634 275.4269  84.6036 14.19517741910482"}}, "geometry": {"type": "Point", "coordinates": [-44.887384437248876, -63.299917862794764]}}, {"type": "Feature", "properties": {"norad_id": 35491, "name": "GOES 14", "group": "weather", "lat": -0.9479532205076356, "lon": 34.36624753999954, "alt_km": 35836.55933365295, "timestamp": "2025-12-24T03:53:29.284918+00:00", "meta": {"OBJECT_NAME": "GOES 14", "OBJECT_ID": "2009-033A", "EPOCH": "2025-12-23T16:00:05.299200", "MEAN_MOTION": 1.00097003, "ECCENTRICITY": 6.11e-05, "INCLINATION": 1.2304, "RA_OF_ASC_NODE": 85.2938, "ARG_OF_PERICENTER": 188.8925, "MEAN_ANOMALY": 301.646, "EPHEMERIS_TYPE": 0, "CLASSIFICATION_TYPE": "U", "NORAD_CAT_ID": 35491, "ELEMENT_SET_NO": 999, "REV_AT_EPOCH": 483, "BSTAR": 0, "MEAN_MOTION_DOT": 3.1e-07, "MEAN_MOTION_DDOT": 0}, "tle": {"line1": "1 35491U 09033A   25357.66672800  .00000031  00000+0  00000+0 0  9996", "line2": "2 35491   1.2304  85.2938 0000611 188.8925 301.6460  1.00097003  4833"}}, "geometry": {"type": "Point", "coordinates": [34.36624753999954, -0.9479532205076356]}}, {"type": "Feature", "properties": {"norad_id": 35951, "name": "DMSP 5D-3 F18 (USA 210)", "group": "weather", "lat": -71.84811348685356, "lon": 126.00981240180626, "alt_km": 856.6826712455877, "timestamp": "2025-12-24T03:53:29.284932+00:00", "meta": {"OBJECT_NAME": "DMSP 5D-3 F18 (USA 210)", "OBJECT_ID": "2009-057A", "EPOCH": "2025-12-23T18:12:26.635968", "MEAN_MOTION": 14.14776244, "ECCENTRICITY": 0.0011751, "INCLINATION": 98.8847, "RA_OF_ASC_NODE": 334.105, "ARG_OF_PERICENTER": 33.6508, "MEAN_ANOMALY": 326.5408, "EPHEMERIS_TYPE": 0, "CLASSIFICATION_TYPE": "U", "NORAD_CAT_ID": 35951, "ELEMENT_SET_NO": 999, "REV_AT_EPOCH": 83478, "BSTAR": 0.00015748, "MEAN_MOTION_DOT": 2.59e-06, "MEAN_MOTION_DDOT": 0}, "tle": {"line1": "1 35951U 09057A   25357.75864162  .00000259  00000+0  15748-3 0  9998", "line2": "2 35951  98.8847 334.1050 0011751  33.6508 326.5408 14.14776244834783"}}, "geometry": {"type": "Point", "coordinates": [126.00981240180626, -71.84811348685356]}}, {"type": "Feature", "properties": {"norad_id": 36411, "name": "EWS-G2 (GOES 15)", "group": "weather", "lat": 0.6670366975855775, "lon": -147.38455440007726, "alt_km": 35771.79687731489, "timestamp": "2025-12-24T03:53:29.284945+00:00", "meta": {"OBJECT_NAME": "EWS-G2 (GOES 15)", "OBJECT_ID": "2010-008A", "EPOCH": "2025-12-23T20:16:18.409728", "MEAN_MOTION": 1.00271063, "ECCENTRICITY": 0.0005531, "INCLINATION": 0.8394, "RA_OF_ASC_NODE": 86.0714, "ARG_OF_PERICENTER": 178.5851, "MEAN_ANOMALY": 193.404, "EPHEMERIS_TYPE": 0, "CLASSIFICATION_TYPE": "U", "NORAD_CAT_ID": 36411, "ELEMENT_SET_NO": 999, "REV_AT_EPOCH": 5788, "BSTAR": 0, "MEAN_MOTION_DOT": 5.9e-07, "MEAN_MOTION_DDOT": 0}, "tle": {"line1": "1 36411U 10008A   25357.84465752  .00000059  00000+0  00000+0 0  9999", "line2": "2 36411   0.8394  86.0714 0005531 178.5851 193.4040  1.00271063 57885"}}, "geometry": {"type": "Point", "coordinates": [-147.38455440007726, 0.6670366975855775]}}, {"type": "Feature", "properties": {"norad_id": 36744, "name": "COMS 1", "group": "weather", "lat": -1.6286864257479445, "lon": -80.57253636275783, "alt_km": 35783.35216875582, "timestamp": "2025-12-24T03:53:29.284959+00:00", "meta": {"OBJECT_NAME": "COMS 1", "OBJECT_ID": "2010-032A", "EPOCH": "2025-12-23T17:09:58.603968", "MEAN_MOTION": 1.00270685, "ECCENTRICITY": 8e-05, "INCLINATION": 4.3651, "RA_OF_ASC_NODE": 77.8741, "ARG_OF_PERICENTER": 212.8601, "MEAN_ANOMALY": 187.4375, "EPHEMERIS_TYPE": 0, "CLASSIFICATION_TYPE": "U", "NORAD_CAT_ID": 36744, "ELEMENT_SET_NO": 999, "REV_AT_EPOCH": 4933, "BSTAR": 0, "MEAN_MOTION_DOT": -3.25e-06, "MEAN_MOTION_DDOT": 0}, "tle": {"line1": "1 36744U 10032A   25357.71526162 -.00000325  00000+0  00000+0 0  9991", "line2": "2 36744   4.3651  77.8741 0000800 212.8601 187.4375  1.00270685 49330"}}, "geometry": {"type": "Point", "coordinates": [-80.57253636275783, -1.6286864257479445]}}, {"type": "Feature", "properties": {"norad_id": 37214, "name": "FENGYUN 3B", "group": "weather", "lat": -38.854718051582765, "lon": -149.10751815574454, "alt_km": 853.6069682768366, "timestamp": "2025-12-24T03:53:29.284971+00:00", "meta": {"OBJECT_NAME": "FENGYUN 3B", "OBJECT_ID": "2010-059A", "EPOCH": "2025-12-23T20:52:55.916832", "MEAN_MOTION": 14.14791439, "ECCENTRICITY": 0.0021551, "INCLINATION": 98.9887, "RA_OF_ASC_NODE": 37.9243, "ARG_OF_PERICENTER": 325.8977, "MEAN_ANOMALY": 207.0045, "EPHEMERIS_TYPE": 0, "CLASSIFICATION_TYPE": "U", "NORAD_CAT_ID": 37214, "ELEMENT_SET_NO": 999, "REV_AT_EPOCH": 78263, "BSTAR": -2.8445e-05, "MEAN_MOTION_DOT": -1.01e-06, "MEAN_MOTION_DDOT": 0}, "tle": {"line1": "1 37214U 10059A   25357.87009163 -.00000101  00000+0 -28445-4 0  9998", "line2": "2 37214  98.9887  37.9243 0021551 325.8977 207.0045 14.14791439782638"}}, "geometry": {"type": "Point", "coordinates": [-149.10751815574454, -38.854718051582765]}}, {"type": "Feature", "properties": {"norad_id": 37849, "name": "SUOMI NPP", "group": "weather", "lat": -72.00729995390395, "lon": 86.99068588094809, "alt_km": 835.8872651860438, "timestamp": "2025-12-24T03:53:29.284983+00:00", "meta": {"OBJECT_NAME": "SUOMI NPP", "OBJECT_ID": "2011-061A", "EPOCH": "2025-12-22T15:10:21.732672", "MEAN_MOTION": 14.19516903, "ECCENTRICITY": 0.00024883, "INCLINATION": 98.7787, "RA_OF_ASC_NODE": 293.8852, "ARG_OF_PERICENTER": 103.0781, "MEAN_ANOMALY": 257.0673, "EPHEMERIS_TYPE": 0, "CLASSIFICATION_TYPE": "U", "NORAD_CAT_ID": 37849, "ELEMENT_SET_NO": 999, "REV_AT_EPOCH": 73339, "BSTAR": 6.3406935e-05, "MEAN_MOTION_DOT": 8.9e-07, "MEAN_MOTION_DDOT": 0}, "tle": {"line1": "1 37849U 11061A   25356.63219598  .00000089  00000+0  63407-4 0  9994", "line2": "2 37849  98.7787 293.8852 0002488 103.0781 257.0673 14.19516903733392"}}, "geometry": {"type": "Point", "coordinates": [86.99068588094809, -72.00729995390395]}}]}